STARLINK-6235           
1 57094U 23088AY  26080.58334491  .00046697  00000+0  21696-2 0  9996
2 57094  43.0010  28.5306 0001708 273.7332 103.9096 15.19280476  5671
STARLINK-6132           
1 57101U 23090A   26080.08866601  .00000326  00000+0  39171-4 0  9994
2 57101  43.0031 213.0956 0001437 268.9311  91.1367 15.02536026152126
STARLINK-6111           
1 57102U 23090B   26080.41551284  .00001654  00000+0  13750-3 0  9999
2 57102  43.0007 211.2457 0001427 274.9044  85.1635 15.02539104152171
STARLINK-6130           
1 57104U 23090D   26080.08533450  .00000832  00000+0  76617-4 0  9998
2 57104  43.0019 213.0691 0001420 269.6452  90.4228 15.02537923152122
STARLINK-6097           
1 57105U 23090E   26080.41439381  .00000932  00000+0  84087-4 0  9995
2 57105  43.0055 211.2410 0001749 281.0772  78.9873 15.02538541152178
STARLINK-6118           
1 57106U 23090F   26079.67758982  .00000142  00000+0  25602-4 0  9994
2 57106  43.0032 215.1672 0001226 271.1591  88.9111 15.02533922152068
STARLINK-6131           
1 57107U 23090G   26079.73074924 -.00000046  00000+0  11655-4 0  9996
2 57107  43.0035 214.7082 0001355 268.0953  91.9735 15.02534363152079
STARLINK-6099           
1 57108U 23090H   26079.74628751 -.00000067  00000+0  10105-4 0  9993
2 57108  43.0030 214.8231 0001003 279.9664  80.1065 15.02545758152078
STARLINK-6139           
1 57109U 23090J   26079.73630069  .00000231  00000+0  32166-4 0  9991
2 57109  43.0031 214.7511 0001354 266.1345  93.9343 15.02533788152074
STARLINK-6134           
1 57110U 23090K   26080.41217289  .00002069  00000+0  16813-3 0  9996
2 57110  43.0013 211.2180 0001256 273.3718  86.6981 15.02543098152178
STARLINK-6140           
1 57111U 23090L   26079.72408963 -.00000881  00000+0 -50143-4 0  9997
2 57111  43.0023 214.6570 0001589 266.5271  93.5389 15.02543984152079
STARLINK-6141           
1 57112U 23090M   26079.74073826  .00001012  00000+0  89958-4 0  9997
2 57112  43.0022 214.7816 0001336 274.0287  86.0403 15.02531307152074
STARLINK-6142           
1 57113U 23090N   26080.06203099  .00001434  00000+0  12121-3 0  9997
2 57113  43.0028 212.8943 0002023 271.7074  88.3536 15.02531091152121
STARLINK-6125           
1 57114U 23090P   26080.05869648 -.00000060  00000+0  10649-4 0  9994
2 57114  43.0024 212.8637 0001348 274.9172  85.1517 15.02536860152124
STARLINK-6085           
1 57115U 23090Q   26080.54970517  .00014009  00000+0  77476-3 0  9994
2 57115  42.9988 197.8158 0020710 278.7285  81.1215 15.13554512152344
STARLINK-6129           
1 57116U 23090R   26080.06535570 -.00000240  00000+0 -27159-5 0  9997
2 57116  43.0018 212.9176 0001366 271.8697  88.1988 15.02537256152121
