[{"OBJECT_NAME":"STARLINK-6235","OBJECT_ID":"2023-088AY","EPOCH":"2026-03-21T14:00:01.000224","MEAN_MOTION":15.19280476,"ECCENTRICITY":0.00017086,"INCLINATION":43.001,"RA_OF_ASC_NODE":28.5306,"ARG_OF_PERICENTER":273.7332,"MEAN_ANOMALY":103.9096,"EPHEMERIS_TYPE":0,"CLASSIFICATION_TYPE":"U","NORAD_CAT_ID":57094,"ELEMENT_SET_NO":999,"REV_AT_EPOCH":567,"BSTAR":0.0021696203,"MEAN_MOTION_DOT":0.00046697,"MEAN_MOTION_DDOT":0},{"OBJECT_NAME":"STARLINK-6132","OBJECT_ID":"2023-090A","EPOCH":"2026-03-21T02:07:40.743264","MEAN_MOTION":15.02536026,"ECCENTRICITY":0.00014379,"INCLINATION":43.0031,"RA_OF_ASC_NODE":213.0956,"ARG_OF_PERICENTER":268.9311,"MEAN_ANOMALY":91.1367,"EPHEMERIS_TYPE":0,"CLASSIFICATION_TYPE":"U","NORAD_CAT_ID":57101,"ELEMENT_SET_NO":999,"REV_AT_EPOCH":15212,"BSTAR":3.917116e-5,"MEAN_MOTION_DOT":3.26e-6,"MEAN_MOTION_DDOT":0},{"OBJECT_NAME":"STARLINK-6111","OBJECT_ID":"2023-090B","EPOCH":"2026-03-21T09:58:20.309376","MEAN_MOTION":15.02539104,"ECCENTRICITY":0.0001427,"INCLINATION":43.0007,"RA_OF_ASC_NODE":211.2457,"ARG_OF_PERICENTER":274.9044,"MEAN_ANOMALY":85.1635,"EPHEMERIS_TYPE":0,"CLASSIFICATION_TYPE":"U","NORAD_CAT_ID":57102,"ELEMENT_SET_NO":999,"REV_AT_EPOCH":15217,"BSTAR":0.00013749551,"MEAN_MOTION_DOT":1.654e-5,"MEAN_MOTION_DDOT":0},{"OBJECT_NAME":"STARLINK-6130","OBJECT_ID":"2023-090D","EPOCH":"2026-03-21T02:02:52.900800","MEAN_MOTION":15.02537923,"ECCENTRICITY":0.00014206,"INCLINATION":43.0019,"RA_OF_ASC_NODE":213.0691,"ARG_OF_PERICENTER":269.6452,"MEAN_ANOMALY":90.4228,"EPHEMERIS_TYPE":0,"CLASSIFICATION_TYPE":"U","NORAD_CAT_ID":57104,"ELEMENT_SET_NO":999,"REV_AT_EPOCH":15212,"BSTAR":7.6617046e-5,"MEAN_MOTION_DOT":8.32e-6,"MEAN_MOTION_DDOT":0},{"OBJECT_NAME":"STARLINK-6097","OBJECT_ID":"2023-090E","EPOCH":"2026-03-21T09:56:43.625184","MEAN_MOTION":15.02538541,"ECCENTRICITY":0.00017497,"INCLINATION":43.0055,"RA_OF_ASC_NODE":211.241,"ARG_OF_PERICENTER":281.0772,"MEAN_ANOMALY":78.9873,"EPHEMERIS_TYPE":0,"CLASSIFICATION_TYPE":"U","NORAD_CAT_ID":57105,"ELEMENT_SET_NO":999,"REV_AT_EPOCH":15217,"BSTAR":8.4086888e-5,"MEAN_MOTION_DOT":9.32e-6,"MEAN_MOTION_DDOT":0},{"OBJECT_NAME":"STARLINK-6118","OBJECT_ID":"2023-090F","EPOCH":"2026-03-20T16:15:43.760448","MEAN_MOTION":15.02533922,"ECCENTRICITY":0.00012262,"INCLINATION":43.0032,"RA_OF_ASC_NODE":215.1672,"ARG_OF_PERICENTER":271.1591,"MEAN_ANOMALY":88.9111,"EPHEMERIS_TYPE":0,"CLASSIFICATION_TYPE":"U","NORAD_CAT_ID":57106,"ELEMENT_SET_NO":999,"REV_AT_EPOCH":15206,"BSTAR":2.5601723e-5,"MEAN_MOTION_DOT":1.42e-6,"MEAN_MOTION_DDOT":0},{"OBJECT_NAME":"STARLINK-6131","OBJECT_ID":"2023-090G","EPOCH":"2026-03-20T17:32:16.734336","MEAN_MOTION":15.02534363,"ECCENTRICITY":0.00013554,"INCLINATION":43.0035,"RA_OF_ASC_NODE":214.7082,"ARG_OF_PERICENTER":268.0953,"MEAN_ANOMALY":91.9735,"EPHEMERIS_TYPE":0,"CLASSIFICATION_TYPE":"U","NORAD_CAT_ID":57107,"ELEMENT_SET_NO":999,"REV_AT_EPOCH":15207,"BSTAR":1.1655493e-5,"MEAN_MOTION_DOT":-4.6e-7,"MEAN_MOTION_DDOT":0},{"OBJECT_NAME":"STARLINK-6099","OBJECT_ID":"2023-090H","EPOCH":"2026-03-20T17:54:39.240864","MEAN_MOTION":15.02545758,"ECCENTRICITY":0.00010036,"INCLINATION":43.003,"RA_OF_ASC_NODE":214.8231,"ARG_OF_PERICENTER":279.9664,"MEAN_ANOMALY":80.1065,"EPHEMERIS_TYPE":0,"CLASSIFICATION_TYPE":"U","NORAD_CAT_ID":57108,"ELEMENT_SET_NO":999,"REV_AT_EPOCH":15207,"BSTAR":1.0104552e-5,"MEAN_MOTION_DOT":-6.7e-7,"MEAN_MOTION_DDOT":0},{"OBJECT_NAME":"STARLINK-6139","OBJECT_ID":"2023-090J","EPOCH":"2026-03-20T17:40:16.379616","MEAN_MOTION":15.02533788,"ECCENTRICITY":0.00013544,"INCLINATION":43.0031,"RA_OF_ASC_NODE":214.7511,"ARG_OF_PERICENTER":266.1345,"MEAN_ANOMALY":93.9343,"EPHEMERIS_TYPE":0,"CLASSIFICATION_TYPE":"U","NORAD_CAT_ID":57109,"ELEMENT_SET_NO":999,"REV_AT_EPOCH":15207,"BSTAR":3.2166499e-5,"MEAN_MOTION_DOT":2.31e-6,"MEAN_MOTION_DDOT":0},{"OBJECT_NAME":"STARLINK-6134","OBJECT_ID":"2023-090K","EPOCH":"2026-03-21T09:53:31.737696","MEAN_MOTION":15.02543098,"ECCENTRICITY":0.00012564,"INCLINATION":43.0013,"RA_OF_ASC_NODE":211.218,"ARG_OF_PERICENTER":273.3718,"MEAN_ANOMALY":86.6981,"EPHEMERIS_TYPE":0,"CLASSIFICATION_TYPE":"U","NORAD_CAT_ID":57110,"ELEMENT_SET_NO":999,"REV_AT_EPOCH":15217,"BSTAR":0.00016812697,"MEAN_MOTION_DOT":2.069e-5,"MEAN_MOTION_DDOT":0},{"OBJECT_NAME":"STARLINK-6140","OBJECT_ID":"2023-090L","EPOCH":"2026-03-20T17:22:41.344032","MEAN_MOTION":15.02543984,"ECCENTRICITY":0.00015893,"INCLINATION":43.0023,"RA_OF_ASC_NODE":214.657,"ARG_OF_PERICENTER":266.5271,"MEAN_ANOMALY":93.5389,"EPHEMERIS_TYPE":0,"CLASSIFICATION_TYPE":"U","NORAD_CAT_ID":57111,"ELEMENT_SET_NO":999,"REV_AT_EPOCH":15207,"BSTAR":-5.0143409e-5,"MEAN_MOTION_DOT":-8.81e-6,"MEAN_MOTION_DDOT":0},{"OBJECT_NAME":"STARLINK-6141","OBJECT_ID":"2023-090M","EPOCH":"2026-03-20T17:46:39.785664","MEAN_MOTION":15.02531307,"ECCENTRICITY":0.00013362,"INCLINATION":43.0022,"RA_OF_ASC_NODE":214.7816,"ARG_OF_PERICENTER":274.0287,"MEAN_ANOMALY":86.0403,"EPHEMERIS_TYPE":0,"CLASSIFICATION_TYPE":"U","NORAD_CAT_ID":57112,"ELEMENT_SET_NO":999,"REV_AT_EPOCH":15207,"BSTAR":8.9958238e-5,"MEAN_MOTION_DOT":1.012e-5,"MEAN_MOTION_DDOT":0},{"OBJECT_NAME":"STARLINK-6142","OBJECT_ID":"2023-090N","EPOCH":"2026-03-21T01:29:19.477536","MEAN_MOTION":15.02531091,"ECCENTRICITY":0.00020231,"INCLINATION":43.0028,"RA_OF_ASC_NODE":212.8943,"ARG_OF_PERICENTER":271.7074,"MEAN_ANOMALY":88.3536,"EPHEMERIS_TYPE":0,"CLASSIFICATION_TYPE":"U","NORAD_CAT_ID":57113,"ELEMENT_SET_NO":999,"REV_AT_EPOCH":15212,"BSTAR":0.00012121108,"MEAN_MOTION_DOT":1.434e-5,"MEAN_MOTION_DDOT":0},{"OBJECT_NAME":"STARLINK-6125","OBJECT_ID":"2023-090P","EPOCH":"2026-03-21T01:24:31.375872","MEAN_MOTION":15.0253686,"ECCENTRICITY":0.00013483,"INCLINATION":43.0024,"RA_OF_ASC_NODE":212.8637,"ARG_OF_PERICENTER":274.9172,"MEAN_ANOMALY":85.1517,"EPHEMERIS_TYPE":0,"CLASSIFICATION_TYPE":"U","NORAD_CAT_ID":57114,"ELEMENT_SET_NO":999,"REV_AT_EPOCH":15212,"BSTAR":1.0648633e-5,"MEAN_MOTION_DOT":-6.0e-7,"MEAN_MOTION_DDOT":0},{"OBJECT_NAME":"STARLINK-6085","OBJECT_ID":"2023-090Q","EPOCH":"2026-03-21T13:11:34.526688","MEAN_MOTION":15.13554512,"ECCENTRICITY":0.00207107,"INCLINATION":42.9988,"RA_OF_ASC_NODE":197.8158,"ARG_OF_PERICENTER":278.7285,"MEAN_ANOMALY":81.1215,"EPHEMERIS_TYPE":0,"CLASSIFICATION_TYPE":"U","NORAD_CAT_ID":57115,"ELEMENT_SET_NO":999,"REV_AT_EPOCH":15234,"BSTAR":0.00077476398,"MEAN_MOTION_DOT":0.00014009,"MEAN_MOTION_DDOT":0},{"OBJECT_NAME":"STARLINK-6129","OBJECT_ID":"2023-090R","EPOCH":"2026-03-21T01:34:06.732480","MEAN_MOTION":15.02537256,"ECCENTRICITY":0.00013669,"INCLINATION":43.0018,"RA_OF_ASC_NODE":212.9176,"ARG_OF_PERICENTER":271.8697,"MEAN_ANOMALY":88.1988,"EPHEMERIS_TYPE":0,"CLASSIFICATION_TYPE":"U","NORAD_CAT_ID":57116,"ELEMENT_SET_NO":999,"REV_AT_EPOCH":15212,"BSTAR":-2.715861e-6,"MEAN_MOTION_DOT":-2.4e-6,"MEAN_MOTION_DDOT":0}]
